{"type": "FeatureCollection", "features": [ {"type": "Feature", "properties": {"norad_id": 40315, "name": "COSMOS 2501 (702K)", "group": "gnss", "lat": -19.507341628726998, "lon": 27.168333398718843, "alt_km": 19081.471864089606, "timestamp": "2025-12-06T16:45:42.965553+00:00", "meta": {"OBJECT_NAME": "COSMOS 2501 (702K)", "OBJECT_ID": "2014-075A", "EPOCH": "2025-12-04T02:08:01.213152", "MEAN_MOTION": 2.13101298, "ECCENTRICITY": 0.0020149, "INCLINATION": 63.6138, "RA_OF_ASC_NODE": 197.1248, "ARG_OF_PERICENTER": 204.6361, "MEAN_ANOMALY": 155.363, "EPHEMERIS_TYPE": 0, "CLASSIFICATION_TYPE": "U", "NORAD_CAT_ID": 40315, "ELEMENT_SET_NO": 999, "REV_AT_EPOCH": 8569, "BSTAR": 0, "MEAN_MOTION_DOT": 1.03e-06, "MEAN_MOTION_DDOT": 0}, "tle": {"line1": "1 40315U 14075A   25338.08890293  .00000103  00000+0  00000+0 0  9992", "line2": "2 40315  63.6138 197.1248 0020149 204.6361 155.3630  2.13101298 85690"}}, "geometry": {"type": "Point", "coordinates": [27.168333398718843, -19.507341628726998]}}, {"type": "Feature", "properties": {"norad_id": 40534, "name": "GPS BIIF-9  (PRN 26)", "group": "gnss", "lat": 47.87385932330202, "lon": -92.0208152848781, "alt_km": 19928.695606585567, "timestamp": "2025-12-06T16:45:42.965565+00:00", "meta": {"OBJECT_NAME": "GPS BIIF-9  (PRN 26)", "OBJECT_ID": "2015-013A", "EPOCH": "2025-12-05T02:39:15.664608", "MEAN_MOTION": 2.00562945, "ECCENTRICITY": 0.01067231, "INCLINATION": 53.199, "RA_OF_ASC_NODE": 212.2063, "ARG_OF_PERICENTER": 38.2939, "MEAN_ANOMALY": 322.5584, "EPHEMERIS_TYPE": 0, "CLASSIFICATION_TYPE": "U", "NORAD_CAT_ID": 40534, "ELEMENT_SET_NO": 999, "REV_AT_EPOCH": 7793, "BSTAR": 0, "MEAN_MOTION_DOT": 6.7e-07, "MEAN_MOTION_DDOT": 0}, "tle": {"line1": "1 40534U 15013A   25339.11059797  .00000067  00000+0  00000+0 0  9998", "line2": "2 40534  53.1990 212.2063 0106723  38.2939 322.5584  2.00562945 77932"}}, "geometry": {"type": "Point", "coordinates": [-92.0208152848781, 47.87385932330202]}}, {"type": "Feature", "properties": {"norad_id": 40544, "name": "GSAT0203 (GALILEO 7)", "group": "gnss", "lat": -52.06981484312406, "lon": -70.17491664536676, "alt_km": 23209.54645620339, "timestamp": "2025-12-06T16:45:42.965576+00:00", "meta": {"OBJECT_NAME": "GSAT0203 (GALILEO 7)", "OBJECT_ID": "2015-017A", "EPOCH": "2025-12-05T01:16:54.709536", "MEAN_MOTION": 1.70475832, "ECCENTRICITY": 0.00065103, "INCLINATION": 56.8481, "RA_OF_ASC_NODE": 346.8898, "ARG_OF_PERICENTER": 269.6279, "MEAN_ANOMALY": 90.3257, "EPHEMERIS_TYPE": 0, "CLASSIFICATION_TYPE": "U", "NORAD_CAT_ID": 40544, "ELEMENT_SET_NO": 999, "REV_AT_EPOCH": 6589, "BSTAR": 0, "MEAN_MOTION_DOT": -7.5e-07, "MEAN_MOTION_DDOT": 0}, "tle": {"line1": "1 40544U 15017A   25339.05341099 -.00000075  00000+0  00000+0 0  9995", "line2": "2 40544  56.8481 346.8898 0006510 269.6279  90.3257  1.70475832 65891"}}, "geometry": {"type": "Point", "coordinates": [-70.17491664536676, -52.06981484312406]}}, {"type": "Feature", "properties": {"norad_id": 40545, "name": "GSAT0204 (GALILEO 8)", "group": "gnss", "lat": 37.954980689742314, "lon": 136.21029688542114, "alt_km": 23229.0005711946, "timestamp": "2025-12-06T16:45:42.965587+00:00", "meta": {"OBJECT_NAME": "GSAT0204 (GALILEO 8)", "OBJECT_ID": "2015-017B", "EPOCH": "2025-12-04T03:15:24.834240", "MEAN_MOTION": 1.70475395, "ECCENTRICITY": 0.00062587, "INCLINATION": 56.8537, "RA_OF_ASC_NODE": 346.9325, "ARG_OF_PERICENTER": 261.1307, "MEAN_ANOMALY": 98.8308, "EPHEMERIS_TYPE": 0, "CLASSIFICATION_TYPE": "U", "NORAD_CAT_ID": 40545, "ELEMENT_SET_NO": 999, "REV_AT_EPOCH": 2892, "BSTAR": 0, "MEAN_MOTION_DOT": -7.1e-07, "MEAN_MOTION_DDOT": 0}, "tle": {"line1": "1 40545U 15017B   25338.13570410 -.00000071  00000+0  00000+0 0  9991", "line2": "2 40545  56.8537 346.9325 0006258 261.1307  98.8308  1.70475395 28925"}}, "geometry": {"type": "Point", "coordinates": [136.21029688542114, 37.954980689742314]}}, {"type": "Feature", "properties": {"norad_id": 40730, "name": "GPS BIIF-10 (PRN 08)", "group": "gnss", "lat": -38.82514253092282, "lon": -120.53822223164013, "alt_km": 20118.716780864193, "timestamp": "2025-12-06T16:45:42.965599+00:00", "meta": {"OBJECT_NAME": "GPS BIIF-10 (PRN 08)", "OBJECT_ID": "2015-033A", "EPOCH": "2025-12-05T06:31:35.095008", "MEAN_MOTION": 2.00565806, "ECCENTRICITY": 0.0110509, "INCLINATION": 54.1373, "RA_OF_ASC_NODE": 275.0802, "ARG_OF_PERICENTER": 26.625, "MEAN_ANOMALY": 333.9439, "EPHEMERIS_TYPE": 0, "CLASSIFICATION_TYPE": "U", "NORAD_CAT_ID": 40730, "ELEMENT_SET_NO": 999, "REV_AT_EPOCH": 7610, "BSTAR": 0, "MEAN_MOTION_DOT": -3e-07, "MEAN_MOTION_DDOT": 0}, "tle": {"line1": "1 40730U 15033A   25339.27193397 -.00000030  00000+0  00000+0 0  9991", "line2": "2 40730  54.1373 275.0802 0110509  26.6250 333.9439  2.00565806 76100"}}, "geometry": {"type": "Point", "coordinates": [-120.53822223164013, -38.82514253092282]}}, {"type": "Feature", "properties": {"norad_id": 40748, "name": "BEIDOU-3S M2S (C58)", "group": "gnss", "lat": 54.82817994774914, "lon": 45.87377682826737, "alt_km": 21556.30913689128, "timestamp": "2025-12-06T16:45:42.965612+00:00", "meta": {"OBJECT_NAME": "BEIDOU-3S M2S (C58)", "OBJECT_ID": "2015-037A", "EPOCH": "2025-12-04T09:50:19.277376", "MEAN_MOTION": 1.86229056, "ECCENTRICITY": 0.00124004, "INCLINATION": 55.0462, "RA_OF_ASC_NODE": 308.7497, "ARG_OF_PERICENTER": 267.6151, "MEAN_ANOMALY": 92.2259, "EPHEMERIS_TYPE": 0, "CLASSIFICATION_TYPE": "U", "NORAD_CAT_ID": 40748, "ELEMENT_SET_NO": 999, "REV_AT_EPOCH": 7049, "BSTAR": 0, "MEAN_MOTION_DOT": -6.8e-07, "MEAN_MOTION_DDOT": 0}, "tle": {"line1": "1 40748U 15037A   25338.40994534 -.00000068  00000+0  00000+0 0  9991", "line2": "2 40748  55.0462 308.7497 0012400 267.6151  92.2259  1.86229056 70498"}}, "geometry": {"type": "Point", "coordinates": [45.87377682826737, 54.82817994774914]}}, {"type": "Feature", "properties": {"norad_id": 40749, "name": "BEIDOU-3S M1S (C57)", "group": "gnss", "lat": -45.56498004382644, "lon": -96.84956514592687, "alt_km": 21525.890165170968, "timestamp": "2025-12-06T16:45:42.965624+00:00", "meta": {"OBJECT_NAME": "BEIDOU-3S M1S (C57)", "OBJECT_ID": "2015-037B", "EPOCH": "2025-12-01T22:57:46.412352", "MEAN_MOTION": 1.86253762, "ECCENTRICITY": 0.0003321, "INCLINATION": 55.0451, "RA_OF_ASC_NODE": 308.8236, "ARG_OF_PERICENTER": 355.9906, "MEAN_ANOMALY": 3.9975, "EPHEMERIS_TYPE": 0, "CLASSIFICATION_TYPE": "U", "NORAD_CAT_ID": 40749, "ELEMENT_SET_NO": 999, "REV_AT_EPOCH": 7045, "BSTAR": 0, "MEAN_MOTION_DOT": -6e-07, "MEAN_MOTION_DDOT": 0}, "tle": {"line1": "1 40749U 15037B   25335.95678718 -.00000060  00000+0  00000+0 0  9994", "line2": "2 40749  55.0451 308.8236 0003321 355.9906   3.9975  1.86253762 70451"}}, "geometry": {"type": "Point", "coordinates": [-96.84956514592687, -45.56498004382644]}}, {"type": "Feature", "properties": {"norad_id": 40889, "name": "GSAT0205 (GALILEO 9)", "group": "gnss", "lat": -54.722472438045365, "lon": 145.39254398917262, "alt_km": 23237.835939313274, "timestamp": "2025-12-06T16:45:42.965636+00:00", "meta": {"OBJECT_NAME": "GSAT0205 (GALILEO 9)", "OBJECT_ID": "2015-045A", "EPOCH": "2025-12-03T21:42:02.149056", "MEAN_MOTION": 1.70472902, "ECCENTRICITY": 0.0005859, "INCLINATION": 55.0066, "RA_OF_ASC_NODE": 227.0025, "ARG_OF_PERICENTER": 38.6315, "MEAN_ANOMALY": 321.5029, "EPHEMERIS_TYPE": 0, "CLASSIFICATION_TYPE": "U", "NORAD_CAT_ID": 40889, "ELEMENT_SET_NO": 999, "REV_AT_EPOCH": 6368, "BSTAR": 0, "MEAN_MOTION_DOT": 4e-07, "MEAN_MOTION_DDOT": 0}, "tle": {"line1": "1 40889U 15045A   25337.90419154  .00000040  00000+0  00000+0 0  9999", "line2": "2 40889  55.0066 227.0025 0005859  38.6315 321.5029  1.70472902 63681"}}, "geometry": {"type": "Point", "coordinates": [145.39254398917262, -54.722472438045365]}}, {"type": "Feature", "properties": {"norad_id": 40890, "name": "GSAT0206 (GALILEO 10)", "group": "gnss", "lat": 32.10286004920896, "lon": 20.88739977150574, "alt_km": 23221.49897889182, "timestamp": "2025-12-06T16:45:42.965647+00:00", "meta": {"OBJECT_NAME": "GSAT0206 (GALILEO 10)", "OBJECT_ID": "2015-045B", "EPOCH": "2025-12-05T21:13:48.980352", "MEAN_MOTION": 1.70473029, "ECCENTRICITY": 0.00035588, "INCLINATION": 55.0048, "RA_OF_ASC_NODE": 226.9429, "ARG_OF_PERICENTER": 32.2764, "MEAN_ANOMALY": 327.8431, "EPHEMERIS_TYPE": 0, "CLASSIFICATION_TYPE": "U", "NORAD_CAT_ID": 40890, "ELEMENT_SET_NO": 999, "REV_AT_EPOCH": 6374, "BSTAR": 0, "MEAN_MOTION_DOT": 3.5e-07, "MEAN_MOTION_DDOT": 0}, "tle": {"line1": "1 40890U 15045B   25339.88459468  .00000035  00000+0  00000+0 0  9996", "line2": "2 40890  55.0048 226.9429 0003558  32.2764 327.8431  1.70473029 63745"}}, "geometry": {"type": "Point", "coordinates": [20.88739977150574, 32.10286004920896]}}, {"type": "Feature", "properties": {"norad_id": 40938, "name": "BEIDOU-3S IGSO-2S (C56)", "group": "gnss", "lat": 13.721562652895189, "lon": 69.05494329842969, "alt_km": 35554.09520152744, "timestamp": "2025-12-06T16:45:42.965659+00:00", "meta": {"OBJECT_NAME": "BEIDOU-3S IGSO-2S (C56)", "OBJECT_ID": "2015-053A", "EPOCH": "2025-12-03T17:17:32.013024", "MEAN_MOTION": 1.0027148, "ECCENTRICITY": 0.00611089, "INCLINATION": 49.5266, "RA_OF_ASC_NODE": 261.1136, "ARG_OF_PERICENTER": 188.632, "MEAN_ANOMALY": 338.5579, "EPHEMERIS_TYPE": 0, "CLASSIFICATION_TYPE": "U", "NORAD_CAT_ID": 40938, "ELEMENT_SET_NO": 999, "REV_AT_EPOCH": 3739, "BSTAR": 0, "MEAN_MOTION_DOT": -1.53e-06, "MEAN_MOTION_DDOT": 0}, "tle": {"line1": "1 40938U 15053A   25337.72050941 -.00000153  00000+0  00000+0 0  9994", "line2": "2 40938  49.5266 261.1136 0061108 188.6320 338.5579  1.00271480 37397"}}, "geometry": {"type": "Point", "coordinates": [69.05494329842969, 13.721562652895189]}}]}